[{"OBJECT_NAME":"IXPE","OBJECT_ID":"2021-121A","EPOCH":"2026-03-10T00:00:02.999808","MEAN_MOTION":15.09223379,"ECCENTRICITY":0.00072712,"INCLINATION":0.2307,"RA_OF_ASC_NODE":347.0223,"ARG_OF_PERICENTER":20.3591,"MEAN_ANOMALY":57.9535,"EPHEMERIS_TYPE":0,"CLASSIFICATION_TYPE":"U","NORAD_CAT_ID":49954,"ELEMENT_SET_NO":999,"REV_AT_EPOCH":584,"BSTAR":0.0008624183,"MEAN_MOTION_DOT":0.00015078,"MEAN_MOTION_DDOT":0},{"OBJECT_NAME":"STARLINK-3295","OBJECT_ID":"2022-001AP","EPOCH":"2026-03-09T14:43:25.520448","MEAN_MOTION":15.08841577,"ECCENTRICITY":0.0001342,"INCLINATION":53.2186,"RA_OF_ASC_NODE":179.4655,"ARG_OF_PERICENTER":91.7622,"MEAN_ANOMALY":268.3524,"EPHEMERIS_TYPE":0,"CLASSIFICATION_TYPE":"U","NORAD_CAT_ID":50840,"ELEMENT_SET_NO":999,"REV_AT_EPOCH":23024,"BSTAR":3.3961e-5,"MEAN_MOTION_DOT":2.53e-6,"MEAN_MOTION_DDOT":0}]
